NORAD_CAT_ID,OBJECT_NAME,OBJECT_TYPE,EPOCH,MEAN_MOTION,ECCENTRICITY,INCLINATION,RA_OF_ASC_NODE,ARG_OF_PERICENTER,MEAN_ANOMALY,BSTAR,MEAN_MOTION_DOT,MEAN_MOTION_DDOT,TLE_LINE0,TLE_LINE1,TLE_LINE2,SEMIMAJOR_AXIS,PERIOD,APOGEE,PERIGEE,DECAYED
51722.0,STARLINK-3535,PAYLOAD,2022-07-18 22:00:00,15.088323999999998,0.0001887,53.2153,178.6931,54.2668,155.6269,0.0017476,0.00027629,0.0,0 STARLINK-3535,1 51722U 22016J   22199.91667824  .00027629  00000-0  17476-2 0  9997,2 51722  53.2153 178.6931 0001887  54.2668 155.6269 15.08832400  1307,6917.904,95.438,541.0740000000002,538.4630000000002,0.0
51722.0,STARLINK-3535,PAYLOAD,2022-07-19 00:00:00,15.08850653,0.0001898,53.2157,178.3195,54.4212,248.3655,-0.00013923,-2.504e-05,0.0,0 STARLINK-3535,1 51722U 22016J   22200.00001157 -.00002504  00000-0 -13923-3 0  9992,2 51722  53.2157 178.3195 0001898  54.4212 248.3655 15.08850653 23740,6917.848000000001,95.437,541.026,538.4,0.0
51722.0,STARLINK-3535,PAYLOAD,2022-07-19 06:00:00,15.08836511,0.000211,53.2173,177.2012,46.4417,175.0229,3.2869e-05,2.35e-06,0.0,0 STARLINK-3535,1 51722U 22016J   22200.25001157  .00000235  00000-0  32869-4 0  9997,2 51722  53.2173 177.2012 0002110  46.4417 175.0229 15.08836511 23784,6917.891,95.438,541.216,538.2959999999998,0.0
51722.0,STARLINK-3535,PAYLOAD,2022-07-19 14:00:01,15.08882806,0.0001964,53.2155,175.7013,48.7227,184.3728,-0.0048758999999999,-0.0007714999999999,0.0,0 STARLINK-3535,1 51722U 22016J   22200.58334491 -.00077150  00000-0 -48759-2 0  9998,2 51722  53.2155 175.7013 0001964  48.7227 184.3728 15.08882806 23839,6917.75,95.435,540.9730000000002,538.256,0.0
51722.0,STARLINK-3535,PAYLOAD,2022-07-19 22:00:00,15.08762808,0.000197,53.217,174.2062,44.3533,200.3339,0.0073563,0.00118513,0.0,0 STARLINK-3535,1 51722U 22016J   22200.91667824  .00118513  00000-0  73563-2 0  9992,2 51722  53.2170 174.2062 0001970  44.3533 200.3339 15.08762808  1307,6918.116,95.442,541.344,538.618,0.0
51722.0,STARLINK-3535,PAYLOAD,2022-07-20 06:00:00,15.08836667,0.0002035,53.2157,172.7093,48.0829,208.1992,0.0010609,0.00016635,0.0,0 STARLINK-3535,1 51722U 22016J   22201.25001157  .00016635  00000-0  10609-2 0  9995,2 51722  53.2157 172.7093 0002035  48.0829 208.1992 15.08836667 23930,6917.891,95.438,541.163,538.3480000000002,0.0
51722.0,STARLINK-3535,PAYLOAD,2022-07-20 14:00:01,15.08880884,0.0001899999999999,53.2157,171.2121,48.3405,219.5336,-0.0040936,-0.00064925,0.0,0 STARLINK-3535,1 51722U 22016J   22201.58334491 -.00064925  00000-0 -40936-2 0  9994,2 51722  53.2157 171.2121 0001900  48.3405 219.5336 15.08880884  1304,6917.755,95.435,540.935,538.306,0.0
51722.0,STARLINK-3535,PAYLOAD,2022-07-20 22:00:01,15.08827373,0.0001781,53.2159,169.7148,52.9543,226.5951,0.0014682,0.00023148,0.0,0 STARLINK-3535,1 51722U 22016J   22201.91668981  .00023148  00000-0  14682-2 0  9994,2 51722  53.2159 169.7148 0001781  52.9543 226.5951 15.08827373 24038,6917.919,95.438,541.016,538.552,0.0
51722.0,STARLINK-3535,PAYLOAD,2022-07-21 08:00:01,15.08806196,0.0001904,53.2157,167.8463,44.7462,339.2347,0.0014042,0.0002210999999999,0.0,0 STARLINK-3535,1 51722U 22016J   22202.33334491  .00022110  00000-0  14042-2 0  9995,2 51722  53.2157 167.8463 0001904  44.7462 339.2347 15.08806196 24100,6917.984,95.44,541.1659999999998,538.5319999999998,0.0
51722.0,STARLINK-3535,PAYLOAD,2022-07-21 14:00:01,15.08827684,0.0001781999999999,53.2155,166.7228,45.9368,256.7713,-0.0019613,-0.00031357,0.0,0 STARLINK-3535,1 51722U 22016J   22202.58335648 -.00031357  00000-0 -19613-2 0  9991,2 51722  53.2155 166.7228 0001782  45.9368 256.7713 15.08827684  1309,6917.918000000002,95.438,541.016,538.55,0.0
51722.0,STARLINK-3535,PAYLOAD,2022-07-21 22:00:00,15.08819351,0.0001699,53.2157,165.2259,52.1904,262.02,0.0010138,0.00015874,0.0,0 STARLINK-3535,1 51722U 22016J   22202.91667824  .00015874  00000-0  10138-2 0  9999,2 51722  53.2157 165.2259 0001699  52.1904 262.0200 15.08819351  1305,6917.944,95.439,540.984,538.633,0.0
51722.0,STARLINK-3535,PAYLOAD,2022-07-22 06:00:00,15.08816778,0.0001895,53.2155,163.7313,46.7728,279.0212,0.0014399,0.00022688,0.0,0 STARLINK-3535,1 51722U 22016J   22203.25001157  .00022688  00000-0  14399-2 0  9992,2 51722  53.2155 163.7313 0001895  46.7728 279.0212 15.08816778  1309,6917.951,95.439,541.127,538.505,0.0
51722.0,STARLINK-3535,PAYLOAD,2022-07-22 22:00:00,15.08847057,0.0001709,53.2153,160.737,54.5755,294.3856,0.00070307,0.00010921,0.0,0 STARLINK-3535,1 51722U 22016J   22203.91667824  .00010921  00000-0  70307-3 0  9993,2 51722  53.2153 160.7370 0001709  54.5755 294.3856 15.08847057  1306,6917.859,95.437,540.906,538.5419999999998,0.0
51722.0,STARLINK-3535,PAYLOAD,2022-07-23 08:00:01,15.08838533,0.000185,53.2148,158.8683,46.2424,47.2264,9.2249e-05,1.18e-05,0.0,0 STARLINK-3535,1 51722U 22016J   22204.33334491  .00001180  00000-0  92249-4 0  9998,2 51722  53.2148 158.8683 0001850  46.2424  47.2264 15.08838533 24406,6917.885,95.438,541.03,538.47,0.0
51722.0,STARLINK-3535,PAYLOAD,2022-07-23 14:00:01,15.08838494,0.0001708,53.2147,157.7445,49.5271,322.7041,-0.0019134,-0.0003061,0.0,0 STARLINK-3535,1 51722U 22016J   22204.58335648 -.00030610  00000-0 -19134-2 0  9992,2 51722  53.2147 157.7445 0001708  49.5271 322.7041 15.08838494  1301,6917.885,95.438,540.932,538.568,0.0
51722.0,STARLINK-3535,PAYLOAD,2022-07-23 22:00:00,15.08839424,0.0001662,53.2149,156.248,53.9153,329.8333,0.00022997,3.374e-05,0.0,0 STARLINK-3535,1 51722U 22016J   22204.91667824  .00003374  00000-0  22997-3 0  9990,2 51722  53.2149 156.2480 0001662  53.9153 329.8333 15.08839424  1309,6917.882,95.438,540.8969999999998,538.597,0.0
51722.0,STARLINK-3535,PAYLOAD,2022-07-24 14:00:01,15.08848183,0.0001763,53.2146,153.2553,51.3875,355.5414,-0.001121,-0.00018089,0.0,0 STARLINK-3535,1 51722U 22016J   22205.58334491 -.00018089  00000-0 -11210-2 0  9991,2 51722  53.2146 153.2553 0001763  51.3875 355.5414 15.08848183 24593,6917.855,95.437,540.94,538.501,0.0
51722.0,STARLINK-3535,PAYLOAD,2022-07-24 22:00:00,15.08849386,0.000183,53.2147,151.7589,56.1937,2.3276,-0.0023385999999999,-0.00037325,0.0,0 STARLINK-3535,1 51722U 22016J   22205.91667824 -.00037325  00000-0 -23386-2 0  9998,2 51722  53.2147 151.7589 0001830  56.1937   2.3276 15.08849386  1306,6917.852,95.437,540.9830000000002,538.451,0.0
51722.0,STARLINK-3535,PAYLOAD,2022-07-25 14:00:01,15.08829754,0.0001913,53.215,148.7661,54.5616,27.127,-0.00022788,-3.912e-05,0.0,0 STARLINK-3535,1 51722U 22016J   22206.58334491 -.00003912  00000-0 -22788-3 0  9994,2 51722  53.2150 148.7661 0001913  54.5616  27.1270 15.08829754  1301,6917.9119999999975,95.438,541.1,538.453,0.0
51722.0,STARLINK-3535,PAYLOAD,2022-07-25 22:00:00,15.08846568,0.0001973,53.2151,147.2698,57.5279,35.7358,-0.00072284,-0.00011776,0.0,0 STARLINK-3535,1 51722U 22016J   22206.91667824 -.00011776  00000-0 -72284-3 0  9993,2 51722  53.2151 147.2698 0001973  57.5279  35.7358 15.08846568  1304,6917.86,95.437,541.09,538.36,0.0
51722.0,STARLINK-3535,PAYLOAD,2022-07-26 14:00:01,15.08842042,0.0001996999999999,53.2157,144.27700000000004,55.9597,60.4983,0.00029964,4.484e-05,0.0,0 STARLINK-3535,1 51722U 22016J   22207.58334491  .00004484  00000-0  29964-3 0  9991,2 51722  53.2157 144.2770 0001997  55.9597  60.4983 15.08842042  1301,6917.874,95.437,541.121,538.3580000000002,0.0
51722.0,STARLINK-3535,PAYLOAD,2022-07-26 22:00:00,15.08865674,0.0002069,53.2159,142.7807,58.515,69.5378,-0.0009582,-0.00015517,0.0,0 STARLINK-3535,1 51722U 22016J   22207.91667824 -.00015517  00000-0 -95820-3 0  9992,2 51722  53.2159 142.7807 0002069  58.5150  69.5378 15.08865674  1306,6917.802,95.436,541.0980000000002,538.236,0.0
51722.0,STARLINK-3535,PAYLOAD,2022-07-27 14:00:01,15.08840994,0.0001991,53.2164,139.7879,56.2765,95.0172,-0.00038875,-6.47e-05,0.0,0 STARLINK-3535,1 51722U 22016J   22208.58334491 -.00006470  00000-0 -38875-3 0  9992,2 51722  53.2164 139.7879 0001991  56.2765  95.0172 15.08840994  1301,6917.877,95.437,541.12,538.365,0.0
51722.0,STARLINK-3535,PAYLOAD,2022-07-27 22:00:00,15.08850895,0.0002028,53.2168,138.292,57.413,105.4323,-0.0011671,-0.00018821,0.0,0 STARLINK-3535,1 51722U 22016J   22208.91667824 -.00018821  00000-0 -11671-2 0  9995,2 51722  53.2168 138.2920 0002028  57.4130 105.4323 15.08850895  1302,6917.847,95.437,541.115,538.309,0.0
51722.0,STARLINK-3535,PAYLOAD,2022-07-28 00:00:00,15.0884762,0.0002073,53.2166,137.9184,55.6066,200.1393,-0.0012680999999999,-0.00020418,0.0,0 STARLINK-3535,1 51722U 22016J   22209.00001157 -.00020418  00000-0 -12681-2 0  9994,2 51722  53.2166 137.9184 0002073  55.6066 200.1393 15.08847620 25102,6917.857,95.437,541.156,538.288,0.0
51722.0,STARLINK-3535,PAYLOAD,2022-07-28 14:00:01,15.088355800000002,0.0001986999999999,53.2169,135.299,57.398,128.6479,0.0012940999999999,0.00020365,0.0,0 STARLINK-3535,1 51722U 22016J   22209.58334491  .00020365  00000-0  12941-2 0  9995,2 51722  53.2169 135.2990 0001987  57.3980 128.6479 15.08835580  1305,6917.894,95.438,541.133,538.384,0.0
51722.0,STARLINK-3535,PAYLOAD,2022-07-28 22:00:00,15.08871293,0.0002032,53.2171,133.8032,58.9834,138.6577,-0.0016428,-0.00026361,0.0,0 STARLINK-3535,1 51722U 22016J   22209.91667824 -.00026361  00000-0 -16428-2 0  9999,2 51722  53.2171 133.8032 0002032  58.9834 138.6577 15.08871293  1307,6917.785,95.436,541.055,538.244,0.0
51722.0,STARLINK-3535,PAYLOAD,2022-07-29 00:00:00,15.08873388,0.0002058,53.2169,133.4296,56.9219,233.6247,-0.0025930999999999,-0.0004136,0.0,0 STARLINK-3535,1 51722U 22016J   22210.00001157 -.00041360  00000-0 -25931-2 0  9997,2 51722  53.2169 133.4296 0002058  56.9219 233.6247 15.08873388 25252,6917.778,95.435,541.067,538.22,0.0
51722.0,STARLINK-3535,PAYLOAD,2022-07-29 14:00:01,15.08819628,0.0001898,53.2169,130.81,58.0008,162.8621,0.0017312,0.00027356,0.0,0 STARLINK-3535,1 51722U 22016J   22210.58334491  .00027356  00000-0  17312-2 0  9991,2 51722  53.2169 130.8100 0001898  58.0008 162.8621 15.08819628  1303,6917.943,95.439,541.121,538.495,0.0
